start=new Date('2021-10-10T00:00:00.000Z').valueOf();
sats=[{"CLASSIFICATION_TYPE":"U","MEAN_MOTION_DOT":"0.00000125","REF_FRAME":"TEME","TLE_LINE2":"2 45072  53.0532 302.8528 0001250  80.9596 279.1534 15.06399643 93785","NORAD_CAT_ID":"45072","ARG_OF_PERICENTER":"80.9596","MEAN_MOTION_DDOT":"0.0000000000000","CENTER_NAME":"EARTH","MEAN_ANOMALY":"279.1534","DECAY_DATE":null,"OBJECT_NAME":"STARLINK-1168","ECCENTRICITY":"0.00012500","LAUNCH_DATE":"2020-01-29","FILE":"3153808","REV_AT_EPOCH":"9378","PERIAPSIS":"546.349","APOAPSIS":"548.080","RCS_SIZE":"LARGE","INCLINATION":"53.0532","OBJECT_ID":"2020-006AE","SITE":"AFETR","GP_ID":"186727050","TLE_LINE1":"1 45072U 20006AE  21282.76261738  .00000125  00000-0  27281-4 0  9993","BSTAR":"0.00002728100000","SEMIMAJOR_AXIS":"6925.350","COUNTRY_CODE":"US","MEAN_ELEMENT_THEORY":"SGP4","OBJECT_TYPE":"PAYLOAD","EPHEMERIS_TYPE":"0","ELEMENT_SET_NO":"999","RA_OF_ASC_NODE":"302.8528","TIME_SYSTEM":"UTC","EPOCH":"2021-10-09T18:18:10.141632","PERIOD":"95.592","MEAN_MOTION":"15.06399643"},{"CLASSIFICATION_TYPE":"U","REF_FRAME":"TEME","TLE_LINE2":"2 45073  53.0539 304.2144 0000979  84.1611 275.9489 15.06402007 93731","NORAD_CAT_ID":"45073","MEAN_MOTION_DOT":"-0.00000316","ARG_OF_PERICENTER":"84.1611","MEAN_ANOMALY":"275.9489","CENTER_NAME":"EARTH","MEAN_MOTION_DDOT":"0.0000000000000","ECCENTRICITY":"0.00009790","OBJECT_NAME":"STARLINK-1170","DECAY_DATE":null,"LAUNCH_DATE":"2020-01-29","FILE":"3153808","PERIAPSIS":"546.529","REV_AT_EPOCH":"9373","APOAPSIS":"547.885","GP_ID":"186726302","OBJECT_ID":"2020-006AF","RCS_SIZE":"LARGE","INCLINATION":"53.0539","SITE":"AFETR","BSTAR":"-0.00000232260000","TLE_LINE1":"1 45073U 20006AF  21282.45666407 -.00000316  00000-0 -23226-5 0  9992","SEMIMAJOR_AXIS":"6925.342","COUNTRY_CODE":"US","MEAN_ELEMENT_THEORY":"SGP4","ELEMENT_SET_NO":"999","OBJECT_TYPE":"PAYLOAD","EPHEMERIS_TYPE":"0","RA_OF_ASC_NODE":"304.2144","EPOCH":"2021-10-09T10:57:35.775648","TIME_SYSTEM":"UTC","PERIOD":"95.592","MEAN_MOTION":"15.06402007"},{"LAUNCH_DATE":"2020-01-29","ECCENTRICITY":"0.00013810","OBJECT_NAME":"STARLINK-1172","DECAY_DATE":null,"PERIAPSIS":"546.250","REV_AT_EPOCH":"9378","FILE":"3153808","NORAD_CAT_ID":"45074","TLE_LINE2":"2 45074  53.0551 302.8023 0001381  74.6258 285.4884 15.06402304 93785","REF_FRAME":"TEME","MEAN_MOTION_DOT":"0.00001555","CLASSIFICATION_TYPE":"U","CENTER_NAME":"EARTH","MEAN_ANOMALY":"285.4884","MEAN_MOTION_DDOT":"0.0000000000000","ARG_OF_PERICENTER":"74.6258","RA_OF_ASC_NODE":"302.8023","ELEMENT_SET_NO":"999","OBJECT_TYPE":"PAYLOAD","EPHEMERIS_TYPE":"0","PERIOD":"95.592","MEAN_MOTION":"15.06402304","EPOCH":"2021-10-09T18:34:04.440864","TIME_SYSTEM":"UTC","GP_ID":"186726547","SITE":"AFETR","OBJECT_ID":"2020-006AG","RCS_SIZE":"LARGE","INCLINATION":"53.0551","APOAPSIS":"548.163","MEAN_ELEMENT_THEORY":"SGP4","COUNTRY_CODE":"US","SEMIMAJOR_AXIS":"6925.341","TLE_LINE1":"1 45074U 20006AG  21282.77366251  .00001555  00000-0  12326-3 0  9993","BSTAR":"0.00012326000000"},{"LAUNCH_DATE":"2020-01-29","DECAY_DATE":null,"ECCENTRICITY":"0.00011760","OBJECT_NAME":"STARLINK-1174","REV_AT_EPOCH":"9375","PERIAPSIS":"546.385","FILE":"3153808","MEAN_MOTION_DOT":"-0.00000255","TLE_LINE2":"2 45075  53.0552 303.8446 0001176  75.6950 284.4169 15.06404601 93753","NORAD_CAT_ID":"45075","REF_FRAME":"TEME","CLASSIFICATION_TYPE":"U","MEAN_MOTION_DDOT":"0.0000000000000","CENTER_NAME":"EARTH","MEAN_ANOMALY":"284.4169","ARG_OF_PERICENTER":"75.6950","RA_OF_ASC_NODE":"303.8446","EPHEMERIS_TYPE":"0","OBJECT_TYPE":"PAYLOAD","ELEMENT_SET_NO":"999","PERIOD":"95.592","MEAN_MOTION":"15.06404601","TIME_SYSTEM":"UTC","EPOCH":"2021-10-09T12:59:40.201728","SITE":"AFETR","INCLINATION":"53.0552","RCS_SIZE":"LARGE","OBJECT_ID":"2020-006AH","GP_ID":"186726803","APOAPSIS":"548.014","MEAN_ELEMENT_THEORY":"SGP4","COUNTRY_CODE":"US","SEMIMAJOR_AXIS":"6925.334","BSTAR":"0.00000175090000","TLE_LINE1":"1 45075U 20006AH  21282.54143752 -.00000255  00000-0  17509-5 0  9995"},{"APOAPSIS":"547.975","SITE":"AFETR","OBJECT_ID":"2020-006AJ","RCS_SIZE":"LARGE","INCLINATION":"53.0544","GP_ID":"186727550","SEMIMAJOR_AXIS":"6925.352","BSTAR":"0.00010837000000","TLE_LINE1":"1 45076U 20006AJ  21282.54882432  .00001333  00000-0  10837-3 0  9993","MEAN_ELEMENT_THEORY":"SGP4","COUNTRY_CODE":"US","EPHEMERIS_TYPE":"0","OBJECT_TYPE":"PAYLOAD","ELEMENT_SET_NO":"999","RA_OF_ASC_NODE":"303.8039","TIME_SYSTEM":"UTC","EPOCH":"2021-10-09T13:10:18.421248","PERIOD":"95.592","MEAN_MOTION":"15.06398866","CLASSIFICATION_TYPE":"U","MEAN_MOTION_DOT":"0.00001333","TLE_LINE2":"2 45076  53.0544 303.8039 0001094  80.2805 279.8308 15.06398866 93751","NORAD_CAT_ID":"45076","REF_FRAME":"TEME","ARG_OF_PERICENTER":"80.2805","MEAN_MOTION_DDOT":"0.0000000000000","MEAN_ANOMALY":"279.8308","CENTER_NAME":"EARTH","DECAY_DATE":null,"ECCENTRICITY":"0.00010940","OBJECT_NAME":"STARLINK-1180","LAUNCH_DATE":"2020-01-29","FILE":"3153808","REV_AT_EPOCH":"9375","PERIAPSIS":"546.459"},{"OBJECT_TYPE":"PAYLOAD","EPHEMERIS_TYPE":"0","ELEMENT_SET_NO":"999","RA_OF_ASC_NODE":"288.4185","TIME_SYSTEM":"UTC","EPOCH":"2021-10-09T08:57:13.674816","MEAN_MOTION":"15.39884911","PERIOD":"93.513","APOAPSIS":"447.406","SITE":"AFETR","RCS_SIZE":"LARGE","OBJECT_ID":"2020-006AK","INCLINATION":"53.0549","GP_ID":"186725803","SEMIMAJOR_AXIS":"6824.586","TLE_LINE1":"1 45077U 20006AK  21282.37307494 -.00001814  00000-0 -35036-4 0  9990","BSTAR":"-0.00003503600000","MEAN_ELEMENT_THEORY":"SGP4","COUNTRY_CODE":"US","DECAY_DATE":null,"OBJECT_NAME":"STARLINK-1182","ECCENTRICITY":"0.00013990","LAUNCH_DATE":"2020-01-29","FILE":"3153808","REV_AT_EPOCH":"9395","PERIAPSIS":"445.497","CLASSIFICATION_TYPE":"U","MEAN_MOTION_DOT":"-0.00001814","NORAD_CAT_ID":"45077","TLE_LINE2":"2 45077  53.0549 288.4185 0001399  61.1904 298.9240 15.39884911 93959","REF_FRAME":"TEME","ARG_OF_PERICENTER":"61.1904","MEAN_MOTION_DDOT":"0.0000000000000","CENTER_NAME":"EARTH","MEAN_ANOMALY":"298.9240"},{"MEAN_MOTION_DOT":"-0.00000304","NORAD_CAT_ID":"45078","TLE_LINE2":"2 45078  53.0569 302.8201 0001573  76.0399 284.0765 15.06396691 93774","REF_FRAME":"TEME","CLASSIFICATION_TYPE":"U","MEAN_MOTION_DDOT":"0.0000000000000","MEAN_ANOMALY":"284.0765","CENTER_NAME":"EARTH","ARG_OF_PERICENTER":"76.0399","LAUNCH_DATE":"2020-01-29","DECAY_DATE":null,"OBJECT_NAME":"STARLINK-1177","ECCENTRICITY":"0.00015730","REV_AT_EPOCH":"9377","PERIAPSIS":"546.134","FILE":"3153808","SITE":"AFETR","RCS_SIZE":"LARGE","INCLINATION":"53.0569","OBJECT_ID":"2020-006AL","GP_ID":"186726048","APOAPSIS":"548.313","MEAN_ELEMENT_THEORY":"SGP4","COUNTRY_CODE":"US","SEMIMAJOR_AXIS":"6925.359","BSTAR":"-0.00000150500000","TLE_LINE1":"1 45078U 20006AL  21282.76630193 -.00000304  00000-0 -15050-5 0  9997","RA_OF_ASC_NODE":"302.8201","OBJECT_TYPE":"PAYLOAD","EPHEMERIS_TYPE":"0","ELEMENT_SET_NO":"999","MEAN_MOTION":"15.06396691","PERIOD":"95.592","TIME_SYSTEM":"UTC","EPOCH":"2021-10-09T18:23:28.486752"},{"MEAN_ELEMENT_THEORY":"SGP4","COUNTRY_CODE":"US","SEMIMAJOR_AXIS":"6925.335","TLE_LINE1":"1 45079U 20006AM  21282.54512944  .00001238  00000-0  10195-3 0  9995","BSTAR":"0.00010195000000","SITE":"AFETR","INCLINATION":"53.0535","RCS_SIZE":"LARGE","OBJECT_ID":"2020-006AM","GP_ID":"186727303","APOAPSIS":"548.024","PERIOD":"95.592","MEAN_MOTION":"15.06404400","TIME_SYSTEM":"UTC","EPOCH":"2021-10-09T13:04:59.183616","RA_OF_ASC_NODE":"303.8296","OBJECT_TYPE":"PAYLOAD","EPHEMERIS_TYPE":"0","ELEMENT_SET_NO":"999","MEAN_MOTION_DDOT":"0.0000000000000","CENTER_NAME":"EARTH","MEAN_ANOMALY":"268.5732","ARG_OF_PERICENTER":"91.5393","MEAN_MOTION_DOT":"0.00001238","TLE_LINE2":"2 45079  53.0535 303.8296 0001190  91.5393 268.5732 15.06404400 93740","NORAD_CAT_ID":"45079","REF_FRAME":"TEME","CLASSIFICATION_TYPE":"U","REV_AT_EPOCH":"9374","PERIAPSIS":"546.376","FILE":"3153808","LAUNCH_DATE":"2020-01-29","DECAY_DATE":null,"ECCENTRICITY":"0.00011900","OBJECT_NAME":"STARLINK-1149"},{"MEAN_MOTION":"15.06414307","PERIOD":"95.591","TIME_SYSTEM":"UTC","EPOCH":"2021-10-09T18:02:13.115616","RA_OF_ASC_NODE":"302.8943","EPHEMERIS_TYPE":"0","OBJECT_TYPE":"PAYLOAD","ELEMENT_SET_NO":"999","MEAN_ELEMENT_THEORY":"SGP4","COUNTRY_CODE":"US","SEMIMAJOR_AXIS":"6925.305","BSTAR":"0.00024501000000","TLE_LINE1":"1 45080U 20006AN  21282.75154069  .00003371  00000-0  24501-3 0  9996","SITE":"AFETR","INCLINATION":"53.0533","RCS_SIZE":"LARGE","OBJECT_ID":"2020-006AN","GP_ID":"186727051","APOAPSIS":"547.995","REV_AT_EPOCH":"9378","PERIAPSIS":"546.344","FILE":"3153808","LAUNCH_DATE":"2020-01-29","DECAY_DATE":null,"ECCENTRICITY":"0.00011920","OBJECT_NAME":"STARLINK-1153","MEAN_MOTION_DDOT":"0.0000000000000","CENTER_NAME":"EARTH","MEAN_ANOMALY":"281.9749","ARG_OF_PERICENTER":"78.1373","MEAN_MOTION_DOT":"0.00003371","NORAD_CAT_ID":"45080","TLE_LINE2":"2 45080  53.0533 302.8943 0001192  78.1373 281.9749 15.06414307 93787","REF_FRAME":"TEME","CLASSIFICATION_TYPE":"U"},{"EPHEMERIS_TYPE":"0","OBJECT_TYPE":"PAYLOAD","ELEMENT_SET_NO":"999","RA_OF_ASC_NODE":"304.1899","TIME_SYSTEM":"UTC","EPOCH":"2021-10-09T11:08:13.499232","MEAN_MOTION":"15.06387575","PERIOD":"95.593","APOAPSIS":"548.013","SITE":"AFETR","RCS_SIZE":"LARGE","OBJECT_ID":"2020-006AP","INCLINATION":"53.0551","GP_ID":"186726303","SEMIMAJOR_AXIS":"6925.387","BSTAR":"0.00000817040000","TLE_LINE1":"1 45081U 20006AP  21282.46404513 -.00000160  00000-0  81704-5 0  9991","MEAN_ELEMENT_THEORY":"SGP4","COUNTRY_CODE":"US","DECAY_DATE":null,"OBJECT_NAME":"STARLINK-1151","ECCENTRICITY":"0.00011000","LAUNCH_DATE":"2020-01-29","FILE":"3153808","REV_AT_EPOCH":"9374","PERIAPSIS":"546.490","CLASSIFICATION_TYPE":"U","MEAN_MOTION_DOT":"-0.00000160","NORAD_CAT_ID":"45081","TLE_LINE2":"2 45081  53.0551 304.1899 0001100  73.7295 286.3815 15.06387575 93741","REF_FRAME":"TEME","ARG_OF_PERICENTER":"73.7295","MEAN_MOTION_DDOT":"0.0000000000000","MEAN_ANOMALY":"286.3815","CENTER_NAME":"EARTH"}];
